BEIDOU-3 M14 (C33)      
1 43623U 18072B   24359.76203948 -.00000061  00000+0  00000+0 0  9994
2 43623  56.1531  80.5247 0003612 317.9620  42.0310  1.86231034 42607
BEIDOU-3 M16 (C35)      
1 43647U 18078A   24359.38647871 -.00000092  00000+0  00000+0 0  9995
2 43647  54.5674 318.8375 0007327   9.9213 350.0881  1.86232388 42108
BEIDOU-3 M15 (C34)      
1 43648U 18078B   24359.51563820 -.00000092  00000+0  00000+0 0  9992
2 43648  54.5629 318.8351 0004163   8.6582 351.3439  1.86232186 42135
BEIDOU-3 G1 (C59)       
1 43683U 18085A   24360.58776416 -.00000252  00000+0  00000+0 0  9993
2 43683   2.6676 102.9539 0001185  50.5246 292.7687  1.00270542 22656
COSMOS 2529 (757)       
1 43687U 18086A   24360.00258583  .00000098  00000+0  00000+0 0  9992
2 43687  64.2934 210.8141 0006837 260.0460  99.9534  2.13102108 47791
BEIDOU-3 M17 (C36)      
1 43706U 18093A   24359.13179052  .00000101  00000+0  00000+0 0  9992
2 43706  54.1957 200.6209 0006267 300.9656  59.0356  1.86228595 41461
BEIDOU-3 M18 (C37)      
1 43707U 18093B   24360.06948420  .00000113  00000+0  00000+0 0  9993
2 43707  54.1973 200.5809 0006190 343.7621  16.2838  1.86230112 41498
GPS BIII-1  (PRN 04)    
1 43873U 18109A   24359.79065097  .00000002  00000+0  00000+0 0  9990
2 43873  55.3802 113.4942 0032575 193.5540 338.7361  2.00562988 44259
BEIDOU-3 IGSO-1 (C38)   
1 44204U 19023A   24359.79978078 -.00000217  00000+0  00000+0 0  9996
2 44204  57.9217  43.2339 0024034 222.9810 232.4750  1.00297677  1809
BEIDOU-2 G8 (C01)       
1 44231U 19027A   24359.91463375 -.00000224  00000+0  00000+0 0  9991
2 44231   1.9525  74.8241 0004818 208.1054 284.7861  1.00268959 20676
COSMOS 2534 (758)       
1 44299U 19030A   24359.78867894  .00000096  00000+0  00000+0 0  9994
2 44299  64.3664 210.7927 0009102 288.7552  41.3783  2.13102272 43425
BEIDOU-3 IGSO-2 (C39)   
1 44337U 19035A   24359.83114649 -.00000039  00000+0  00000+0 0  9999
2 44337  55.1949 163.5958 0035397 196.7220 150.7310  1.00280590 20258
GPS BIII-2  (PRN 18)    
1 44506U 19056A   24359.24462086 -.00000082  00000+0  00000+0 0  9994
2 44506  55.8222 352.5623 0048614 194.5515 207.3699  2.00559094 39242
BEIDOU-3 M24 (C46)      
1 44542U 19061A   24359.06572035  .00000100  00000+0  00000+0 0  9996
2 44542  54.4236 200.9470 0009111  18.5301 341.5663  1.86229429 35736
BEIDOU-3 M23 (C45)      
1 44543U 19061B   24358.34700031  .00000090  00000+0  00000+0 0  9994
2 44543  54.4217 200.9399 0005775  17.0876 133.7612  1.86229705 35720
BEIDOU-3 IGSO-3 (C40)   
1 44709U 19073A   24360.20957290 -.00000208  00000+0  00000+0 0  9992
2 44709  55.7258 286.6986 0041298 184.7932 175.1689  1.00298878 19034
BEIDOU-3 M22 (C44)      
1 44793U 19078A   24358.37280359 -.00000093  00000+0  00000+0 0  9992
2 44793  54.4154 318.7815 0006054  13.5815 346.4304  1.86232090 34577
BEIDOU-3 M21 (C43)      
1 44794U 19078B   24359.57616169 -.00000092  00000+0  00000+0 0  9997
2 44794  54.3879 318.7115 0004406   1.7736 358.2229  1.86227826 34606
COSMOS 2544 (759)       
1 44850U 19088A   24359.84818709 -.00000034  00000+0  00000+0 0  9991
2 44850  65.2767  91.7718 0013838 251.4891 108.3752  2.13101933 39205
BEIDOU-3 M19 (C41)      
1 44864U 19090A   24359.99427250 -.00000061  00000+0  00000+0 0  9992
2 44864  56.0854  80.6846 0018070 279.7100 192.6266  1.86231628 34185
BEIDOU-3 M20 (C42)      
1 44865U 19090B   24359.80473333 -.00000061  00000+0  00000+0 0  9996
2 44865  56.0870  80.7247 0015348 292.0099 142.9423  1.86231616 34179
BEIDOU-3 G2 (C60)       
1 45344U 20017A   24360.47345168 -.00000116  00000+0  00000+0 0  9990
2 45344   2.5844  36.1344 0004185 232.2945  76.5002  1.00272370 17876
COSMOS 2545 (760)       
1 45358U 20018A   24359.57562528 -.00000060  00000+0  00000+0 0  9994
2 45358  64.6607 331.3223 0011504 253.5022 106.3747  2.13102610 37164
BEIDOU-3 G3 (C61)       
1 45807U 20040A   24359.96762369 -.00000329  00000+0  00000+0 0  9994
2 45807   1.1598  58.1141 0003703 304.5997 190.1784  1.00271935 16667
GPS BIII-3  (PRN 23)    
1 45854U 20041A   24359.93771352 -.00000077  00000+0  00000+0 0  9996
2 45854  56.2796  49.9489 0050425 197.9737 284.0216  2.00569502 33227
GALAXY 30 (WAAS/PRN 135)
1 46114U 20056C   24359.73338288  .00000062  00000+0  00000+0 0  9990
2 46114   0.0167  25.0248 0002057 248.6311 319.0869  1.00272399 15883
COSMOS 2547 (705K)      
1 46805U 20075A   24359.29277659  .00000090  00000+0  00000+0 0  9994
2 46805  64.5961 210.5075 0005786 232.0696 127.9524  2.13103005 32404
GPS BIII-4  (PRN 14)    
1 46826U 20078A   24360.28938220  .00000050  00000+0  00000+0 0  9995
2 46826  54.1113 232.6467 0051719 198.3226 150.5375  2.00560115 30691
GPS BIII-5  (PRN 11)    
1 48859U 21054A   24360.06015351 -.00000081  00000+0  00000+0 0  9990
2 48859  55.3511 354.0931 0019298 230.0003 139.1258  2.00573961 25939
QZS-1R (QZSS/PRN 196)   
1 49336U 21096A   24359.63658022 -.00000265  00000+0  00000+0 0  9990
2 49336  36.3421  87.6525 0755626 271.4957  98.3157  1.00257996 11593
GSAT0223 (GALILEO 27)   
1 49809U 21116A   24359.59403447 -.00000076  00000+0  00000+0 0  9992
2 49809  57.2868 356.2356 0004025 251.1541 268.6298  1.70476113 18985
GSAT0224 (GALILEO 28)   
1 49810U 21116B   24359.74320240 -.00000075  00000+0  00000+0 0  9999
2 49810  57.2876 356.2300 0003391 256.5320 107.3320  1.70476148 19012
COSMOS 2557 (706K)      
1 52984U 22075A   24360.39745717 -.00000059  00000+0  00000+0 0  9995
2 52984  64.5921 333.4059 0013982 280.0625  79.7837  2.13101970 19229
COSMOS 2559 (707K)      
1 54031U 22130A   24359.87169627 -.00000059  00000+0  00000+0 0  9993
2 54031  64.5644 333.5354 0007689 236.1121 123.8195  2.13101362 17192
COSMOS 2564 (761)       
1 54377U 22161A   24360.06174802  .00000100  00000+0  00000+0 0  9990
2 54377  64.7375 210.6207 0007916 205.8540 154.1831  2.13102196 16145
GPS BIII-6  (PRN 28)    
1 55268U 23009A   24359.74172542  .00000109  00000+0  00000+0 0  9993
2 55268  55.0888 169.6968 0002276  72.2231 106.1368  2.00550657 14427
BEIDOU-3 G4 (C62)       
1 56564U 23066A   24359.84599810 -.00000085  00000+0  00000+0 0  9992
2 56564   1.6492 289.2918 0003470 264.6684   4.4269  1.00270830  5987
IRNSS-1J (NVS-01)       
1 56759U 23076A   24360.09702118 -.00000306  00000+0  00000+0 0  9991
2 56759   3.5086 261.7438 0007016   7.9623 348.8896  1.00271346  5799
COSMOS 2569 (703K)      
1 57517U 23114A   24359.13899225 -.00000033  00000+0  00000+0 0  9993
2 57517  65.0060  90.8767 0010544 289.1293  70.7728  2.13104201 10757
BEIDOU-3 M28 (C50)      
1 58654U 23207A   24359.65910015 -.00000062  00000+0  00000+0 0  9999
2 58654  55.2710  80.5790 0002902 260.2190  99.7683  1.86232054  6797
BEIDOU-3 M26 (C48)      
1 58655U 23207B   24360.53240840 -.00000062  00000+0  00000+0 0  9991
2 58655  55.2736  80.5349 0004171 248.0748 111.9011  1.86231549  6799
GSAT0225 (GALILEO 29)   
1 59598U 24079A   24360.35365906  .00000011  00000+0  00000+0 0  9990
2 59598  54.8011 116.1585 0003039 210.9006 158.7790  1.70474834  4118
GSAT0227 (GALILEO 30)   
1 59600U 24079C   24358.76141264  .00000012  00000+0  00000+0 0  9996
2 59600  54.7951 116.2029 0002944 126.2450 233.7531  1.70474936  4158
GSAT0232 (GALILEO 32)   
1 61182U 24167A   24359.15664182  .00000035  00000+0  00000+0 0  9990
2 61182  55.3686 236.1326 0001601 201.6893 236.4690  1.70473651  1671
GSAT0226 (GALILEO 31)   
1 61183U 24167B   24359.70472094  .00000039  00000+0  00000+0 0  9995
2 61183  55.3672 236.1232 0001230  96.5303  70.5261  1.70473699  1659
GPS BIII-7  (PRN 01)    
1 62339U 24242A   24352.19514571 -.00000147  00000+0  00000+0 0  9997
2 62339  55.0241 357.7294 5932880 270.0122 166.0781  4.03197391    04
